[{"OBJECT_NAME":"CUTE-1 (CO-55)","OBJECT_ID":"2003-031E","EPOCH":"2026-04-05T18:01:15.453120","MEAN_MOTION":14.24290236,"ECCENTRICITY":0.0010312,"INCLINATION":98.677,"RA_OF_ASC_NODE":105.2145,"ARG_OF_PERICENTER":41.7667,"MEAN_ANOMALY":318.4298,"EPHEMERIS_TYPE":0,"CLASSIFICATION_TYPE":"U","NORAD_CAT_ID":27844,"ELEMENT_SET_NO":999,"REV_AT_EPOCH":18136,"BSTAR":0.00022481,"MEAN_MOTION_DOT":4.75e-6,"MEAN_MOTION_DDOT":0},{"OBJECT_NAME":"CUBESAT XI-IV (CO-57)","OBJECT_ID":"2003-031J","EPOCH":"2026-04-05T00:00:26.441856","MEAN_MOTION":14.23580899,"ECCENTRICITY":0.00104798,"INCLINATION":98.6802,"RA_OF_ASC_NODE":104.2449,"ARG_OF_PERICENTER":60.3929,"MEAN_ANOMALY":299.8292,"EPHEMERIS_TYPE":0,"CLASSIFICATION_TYPE":"U","NORAD_CAT_ID":27848,"ELEMENT_SET_NO":999,"REV_AT_EPOCH":18096,"BSTAR":0.00018383126,"MEAN_MOTION_DOT":3.75e-6,"MEAN_MOTION_DDOT":0},{"OBJECT_NAME":"CUBESAT XI-V","OBJECT_ID":"2005-043F","EPOCH":"2026-04-05T08:31:52.056768","MEAN_MOTION":14.72438139,"ECCENTRICITY":0.00153015,"INCLINATION":98.2887,"RA_OF_ASC_NODE":249.493,"ARG_OF_PERICENTER":78.6033,"MEAN_ANOMALY":281.6891,"EPHEMERIS_TYPE":0,"CLASSIFICATION_TYPE":"U","NORAD_CAT_ID":28895,"ELEMENT_SET_NO":999,"REV_AT_EPOCH":9103,"BSTAR":0.00041899906,"MEAN_MOTION_DOT":2.609e-5,"MEAN_MOTION_DDOT":0},{"OBJECT_NAME":"CUTE-1.7+APD II (CO-65)","OBJECT_ID":"2008-021C","EPOCH":"2026-04-05T21:48:34.685856","MEAN_MOTION":15.08770328,"ECCENTRICITY":0.0007238,"INCLINATION":97.8239,"RA_OF_ASC_NODE":75.8835,"ARG_OF_PERICENTER":276.0908,"MEAN_ANOMALY":83.9495,"EPHEMERIS_TYPE":0,"CLASSIFICATION_TYPE":"U","NORAD_CAT_ID":32785,"ELEMENT_SET_NO":999,"REV_AT_EPOCH":97429,"BSTAR":0.00044575,"MEAN_MOTION_DOT":6.942e-5,"MEAN_MOTION_DDOT":0},{"OBJECT_NAME":"CANX-2","OBJECT_ID":"2008-021H","EPOCH":"2026-04-05T12:03:16.264512","MEAN_MOTION":15.05094671,"ECCENTRICITY":0.00089649,"INCLINATION":97.858,"RA_OF_ASC_NODE":73.9195,"ARG_OF_PERICENTER":293.4111,"MEAN_ANOMALY":66.6171,"EPHEMERIS_TYPE":0,"CLASSIFICATION_TYPE":"U","NORAD_CAT_ID":32790,"ELEMENT_SET_NO":999,"REV_AT_EPOCH":97387,"BSTAR":0.00039384687,"MEAN_MOTION_DOT":5.544e-5,"MEAN_MOTION_DDOT":0},{"OBJECT_NAME":"SEEDS II (CO-66)","OBJECT_ID":"2008-021J","EPOCH":"2026-04-05T20:55:55.047360","MEAN_MOTION":15.30325052,"ECCENTRICITY":0.0003094,"INCLINATION":97.7531,"RA_OF_ASC_NODE":90.4626,"ARG_OF_PERICENTER":158.0195,"MEAN_ANOMALY":202.1178,"EPHEMERIS_TYPE":0,"CLASSIFICATION_TYPE":"U","NORAD_CAT_ID":32791,"ELEMENT_SET_NO":999,"REV_AT_EPOCH":97622,"BSTAR":0.00082179,"MEAN_MOTION_DOT":0.00024078,"MEAN_MOTION_DDOT":0},{"OBJECT_NAME":"SWISSCUBE","OBJECT_ID":"2009-051B","EPOCH":"2026-04-05T17:03:57.178080","MEAN_MOTION":14.62339444,"ECCENTRICITY":0.0008088,"INCLINATION":98.4077,"RA_OF_ASC_NODE":2.3311,"ARG_OF_PERICENTER":79.3745,"MEAN_ANOMALY":280.8366,"EPHEMERIS_TYPE":0,"CLASSIFICATION_TYPE":"U","NORAD_CAT_ID":35932,"ELEMENT_SET_NO":999,"REV_AT_EPOCH":87856,"BSTAR":0.00036358,"MEAN_MOTION_DOT":1.788e-5,"MEAN_MOTION_DDOT":0},{"OBJECT_NAME":"BEESAT-1","OBJECT_ID":"2009-051C","EPOCH":"2026-04-05T16:24:01.179072","MEAN_MOTION":14.61600352,"ECCENTRICITY":0.0006551,"INCLINATION":98.4007,"RA_OF_ASC_NODE":2.0883,"ARG_OF_PERICENTER":91.1632,"MEAN_ANOMALY":269.0319,"EPHEMERIS_TYPE":0,"CLASSIFICATION_TYPE":"U","NORAD_CAT_ID":35933,"ELEMENT_SET_NO":999,"REV_AT_EPOCH":87859,"BSTAR":0.0003102,"MEAN_MOTION_DOT":1.493e-5,"MEAN_MOTION_DDOT":0},{"OBJECT_NAME":"ITUPSAT1","OBJECT_ID":"2009-051E","EPOCH":"2026-04-05T06:26:30.647328","MEAN_MOTION":14.60328443,"ECCENTRICITY":0.0008679,"INCLINATION":98.4093,"RA_OF_ASC_NODE":0.9348,"ARG_OF_PERICENTER":102.1469,"MEAN_ANOMALY":258.0703,"EPHEMERIS_TYPE":0,"CLASSIFICATION_TYPE":"U","NORAD_CAT_ID":35935,"ELEMENT_SET_NO":999,"REV_AT_EPOCH":87809,"BSTAR":0.00029225,"MEAN_MOTION_DOT":1.364e-5,"MEAN_MOTION_DDOT":0},{"OBJECT_NAME":"TISAT 1","OBJECT_ID":"2010-035E","EPOCH":"2026-04-05T06:35:28.230720","MEAN_MOTION":15.28979942,"ECCENTRICITY":0.00043,"INCLINATION":98.0673,"RA_OF_ASC_NODE":35.546,"ARG_OF_PERICENTER":117.9861,"MEAN_ANOMALY":242.1812,"EPHEMERIS_TYPE":0,"CLASSIFICATION_TYPE":"U","NORAD_CAT_ID":36799,"ELEMENT_SET_NO":999,"REV_AT_EPOCH":85655,"BSTAR":0.00095773,"MEAN_MOTION_DOT":0.00026947,"MEAN_MOTION_DDOT":0},{"OBJECT_NAME":"AEROCUBE 4.5A","OBJECT_ID":"2012-048K","EPOCH":"2026-04-05T19:42:47.734848","MEAN_MOTION":15.68076204,"ECCENTRICITY":0.0034234,"INCLINATION":64.6344,"RA_OF_ASC_NODE":285.2148,"ARG_OF_PERICENTER":209.7209,"MEAN_ANOMALY":150.1997,"EPHEMERIS_TYPE":0,"CLASSIFICATION_TYPE":"U","NORAD_CAT_ID":38767,"ELEMENT_SET_NO":999,"REV_AT_EPOCH":36123,"BSTAR":0.0011012,"MEAN_MOTION_DOT":0.001289,"MEAN_MOTION_DDOT":0},{"OBJECT_NAME":"STRAND-1","OBJECT_ID":"2013-009E","EPOCH":"2026-04-05T18:54:04.972320","MEAN_MOTION":14.37119777,"ECCENTRICITY":0.0009858,"INCLINATION":98.3907,"RA_OF_ASC_NODE":277.808,"ARG_OF_PERICENTER":88.3552,"MEAN_ANOMALY":271.8764,"EPHEMERIS_TYPE":0,"CLASSIFICATION_TYPE":"U","NORAD_CAT_ID":39090,"ELEMENT_SET_NO":999,"REV_AT_EPOCH":68666,"BSTAR":0.00018103,"MEAN_MOTION_DOT":4.95e-6,"MEAN_MOTION_DDOT":0},{"OBJECT_NAME":"BRITE-AUSTRIA","OBJECT_ID":"2013-009F","EPOCH":"2026-04-05T18:28:07.139712","MEAN_MOTION":14.36512684,"ECCENTRICITY":0.0011399,"INCLINATION":98.3977,"RA_OF_ASC_NODE":277.0021,"ARG_OF_PERICENTER":96.1782,"MEAN_ANOMALY":264.0703,"EPHEMERIS_TYPE":0,"CLASSIFICATION_TYPE":"U","NORAD_CAT_ID":39091,"ELEMENT_SET_NO":999,"REV_AT_EPOCH":68665,"BSTAR":0.00011981,"MEAN_MOTION_DOT":3.09e-6,"MEAN_MOTION_DDOT":0},{"OBJECT_NAME":"NEE-01 PEGASO","OBJECT_ID":"2013-018B","EPOCH":"2026-04-05T08:53:58.429824","MEAN_MOTION":14.93304584,"ECCENTRICITY":0.00134223,"INCLINATION":98.1111,"RA_OF_ASC_NODE":237.1793,"ARG_OF_PERICENTER":48.0763,"MEAN_ANOMALY":312.1598,"EPHEMERIS_TYPE":0,"CLASSIFICATION_TYPE":"U","NORAD_CAT_ID":39151,"ELEMENT_SET_NO":999,"REV_AT_EPOCH":69983,"BSTAR":0.00038049299,"MEAN_MOTION_DOT":3.931e-5,"MEAN_MOTION_DDOT":0},{"OBJECT_NAME":"POPACS 2","OBJECT_ID":"2013-055E","EPOCH":"2026-04-05T19:13:04.109664","MEAN_MOTION":14.89288193,"ECCENTRICITY":0.042543,"INCLINATION":80.9927,"RA_OF_ASC_NODE":226.9279,"ARG_OF_PERICENTER":66.2285,"MEAN_ANOMALY":298.2933,"EPHEMERIS_TYPE":0,"CLASSIFICATION_TYPE":"U","NORAD_CAT_ID":39269,"ELEMENT_SET_NO":999,"REV_AT_EPOCH":65243,"BSTAR":0.00037923,"MEAN_MOTION_DOT":0.0002224,"MEAN_MOTION_DDOT":0},{"OBJECT_NAME":"POPACS 3","OBJECT_ID":"2013-055F","EPOCH":"2026-04-05T13:54:59.856480","MEAN_MOTION":14.54592086,"ECCENTRICITY":0.0556385,"INCLINATION":81.0008,"RA_OF_ASC_NODE":307.8351,"ARG_OF_PERICENTER":290.9428,"MEAN_ANOMALY":63.3089,"EPHEMERIS_TYPE":0,"CLASSIFICATION_TYPE":"U","NORAD_CAT_ID":39270,"ELEMENT_SET_NO":999,"REV_AT_EPOCH":62799,"BSTAR":0.00018161,"MEAN_MOTION_DOT":7.47e-5,"MEAN_MOTION_DDOT":0},{"OBJECT_NAME":"ZACUBE-1 (TSHEPISOSAT)","OBJECT_ID":"2013-066B","EPOCH":"2026-04-05T20:56:02.341248","MEAN_MOTION":15.00604028,"ECCENTRICITY":0.004499,"INCLINATION":97.8144,"RA_OF_ASC_NODE":57.829,"ARG_OF_PERICENTER":131.8826,"MEAN_ANOMALY":228.625,"EPHEMERIS_TYPE":0,"CLASSIFICATION_TYPE":"U","NORAD_CAT_ID":39417,"ELEMENT_SET_NO":999,"REV_AT_EPOCH":66988,"BSTAR":0.00043502,"MEAN_MOTION_DOT":5.552e-5,"MEAN_MOTION_DDOT":0}]
