CUTE-1 (CO-55)          
1 27844U 03031E   26095.75087330  .00000475  00000+0  22481-3 0  9992
2 27844  98.6770 105.2145 0010312  41.7667 318.4298 14.24290236181367
CUBESAT XI-IV (CO-57)   
1 27848U 03031J   26095.00030604  .00000375  00000+0  18383-3 0  9991
2 27848  98.6802 104.2449 0010479  60.3929 299.8292 14.23580899180962
CUBESAT XI-V            
1 28895U 05043F   26095.35546362  .00002609  00000+0  41900-3 0  9993
2 28895  98.2887 249.4930 0015301  78.6033 281.6891 14.72438139 91034
CUTE-1.7+APD II (CO-65) 
1 32785U 08021C   26095.90873479  .00006942  00000+0  44575-3 0  9993
2 32785  97.8239  75.8835 0007238 276.0908  83.9495 15.08770328974293
CANX-2                  
1 32790U 08021H   26095.50227158  .00005544  00000+0  39385-3 0  9992
2 32790  97.8580  73.9195 0008964 293.4111  66.6171 15.05094671973871
SEEDS II (CO-66)        
1 32791U 08021J   26095.87216490  .00024078  00000+0  82179-3 0  9992
2 32791  97.7531  90.4626 0003094 158.0195 202.1178 15.30325052976221
SWISSCUBE               
1 35932U 09051B   26095.71107845  .00001788  00000+0  36358-3 0  9993
2 35932  98.4077   2.3311 0008088  79.3745 280.8366 14.62339444878565
BEESAT-1                
1 35933U 09051C   26095.68334698  .00001493  00000+0  31020-3 0  9992
2 35933  98.4007   2.0883 0006551  91.1632 269.0319 14.61600352878598
ITUPSAT1                
1 35935U 09051E   26095.26841027  .00001364  00000+0  29225-3 0  9998
2 35935  98.4093   0.9348 0008679 102.1469 258.0703 14.60328443878099
TISAT 1                 
1 36799U 10035E   26095.27463230  .00026947  00000+0  95773-3 0  9993
2 36799  98.0673  35.5460 0004300 117.9861 242.1812 15.28979942856557
AEROCUBE 4.5A           
1 38767U 12048K   26095.82138582  .00128900  00000+0  11012-2 0  9991
2 38767  64.6344 285.2148 0034234 209.7209 150.1997 15.68076204361231
STRAND-1                
1 39090U 13009E   26095.78755755  .00000495  00000+0  18103-3 0  9998
2 39090  98.3907 277.8080 0009858  88.3552 271.8764 14.37119777686666
BRITE-AUSTRIA           
1 39091U 13009F   26095.76952708  .00000309  00000+0  11981-3 0  9995
2 39091  98.3977 277.0021 0011399  96.1782 264.0703 14.36512684686655
NEE-01 PEGASO           
1 39151U 13018B   26095.37081516  .00003931  00000+0  38049-3 0  9997
2 39151  98.1111 237.1793 0013422  48.0763 312.1598 14.93304584699839
POPACS 2                
1 39269U 13055E   26095.80074201  .00022240  00000+0  37923-3 0  9993
2 39269  80.9927 226.9279 0425430  66.2285 298.2933 14.89288193652439
POPACS 3                
1 39270U 13055F   26095.57985945  .00007470  00000+0  18161-3 0  9996
2 39270  81.0008 307.8351 0556385 290.9428  63.3089 14.54592086627999
ZACUBE-1 (TSHEPISOSAT)  
1 39417U 13066B   26095.87224932  .00005552  00000+0  43502-3 0  9992
2 39417  97.8144  57.8290 0044990 131.8826 228.6250 15.00604028669883
